     2.100          NAVIGATION                              RINEX VERSION / TYPE
fic2rin                                 08/07/2017 00:10:46 PGM / RUN BY / DATE
                                                            END OF HEADER
28 17  8  6 18  0  0.0  .635150820017D-03  .306954461848D-11  .000000000000D+00
     .570000000000D+02  .119468750000D+03  .374729894719D-08 -.142667999216D+01
     .668875873089D-05  .197291143704D-01  .781938433647D-05  .515365933800D+04
     .648000000000D+05 -.800937414169D-07  .497647156979D+00  .502914190292D-06
     .988322243886D+00  .247437500000D+03 -.156566204317D+01 -.776925219197D-08
     .353228999120D-09  .100000000000D+01  .196100000000D+04  .000000000000D+00
     .340000000000D+01  .000000000000D+00 -.111758708954D-07  .570000000000D+02
     .576060000000D+05  .400000000000D+01
29 17  8  6 18  0  0.0  .577532220632D-03 -.420641299570D-11  .000000000000D+00
     .630000000000D+02 -.124375000000D+02  .454483216765D-08 -.964002592795D+00
    -.489875674248D-06  .604822416790D-03  .111199915409D-05  .515358599281D+04
     .648000000000D+05 -.372529029846D-07  .152057146133D+01 -.465661287308D-07
     .981395821247D+00  .370968750000D+03  .780540299608D+00 -.831534636755D-08
     .728601777760D-10  .100000000000D+01  .196100000000D+04  .000000000000D+00
     .240000000000D+01  .000000000000D+00 -.102445483208D-07  .630000000000D+02
     .576060000000D+05  .400000000000D+01
31 17  8  6 18  0  0.0  .183602329344D-03 -.250111042988D-11  .000000000000D+00
     .340000000000D+02  .625000000000D+00  .409552773803D-08  .946849423348D+00
     .132247805595D-06  .845863576978D-02  .104382634163D-04  .515375512505D+04
     .648000000000D+05  .197440385818D-06 -.599782124179D+00  .931322574615D-07
     .966388634126D+00  .178781250000D+03 -.250050744394D+00 -.773782231136D-08
    -.507521140293D-09  .100000000000D+01  .196100000000D+04  .000000000000D+00
     .240000000000D+01  .000000000000D+00 -.135041773319D-07  .340000000000D+02
     .576060000000D+05  .400000000000D+01
32 17  8  6 18  0  0.0 -.478042289615D-03 -.727595761418D-11  .000000000000D+00
     .440000000000D+02  .106250000000D+01  .491306179160D-08 -.172693509776D+01
     .134110450745D-06  .140270951670D-02  .486522912979D-05  .515373790741D+04
     .648000000000D+05 -.130385160446D-07 -.168621618620D+01 -.111758708954D-06
     .957324854526D+00  .287937500000D+03 -.253134664651D+01 -.815605401810D-08
    -.671456540289D-10  .100000000000D+01  .196100000000D+04  .000000000000D+00
     .240000000000D+01  .000000000000D+00  .931322574615D-09  .440000000000D+02
     .576060000000D+05  .400000000000D+01
 8 17  8  6 17 59 44.0 -.689462758601D-04 -.136424205266D-11  .000000000000D+00
     .300000000000D+01  .765625000000D+01  .484805908398D-08 -.181976642677D+01
     .374391674995D-06  .253630569205D-02  .886619091034D-06  .515366812515D+04
     .647840000000D+05 -.111758708954D-06  .145179015298D+01 -.204890966415D-07
     .966988777250D+00  .369656250000D+03 -.622740316411D+00 -.851142596363D-08
     .942896418278D-10  .100000000000D+01  .196100000000D+04  .000000000000D+00
     .240000000000D+01  .000000000000D+00  .558793544769D-08  .300000000000D+01
     .584160000000D+05  .400000000000D+01
27 17  8  6 17 59 44.0  .306168571115D-03  .602540239925D-11  .000000000000D+00
     .600000000000D+01  .146875000000D+01  .465947980032D-08 -.231754530343D+01
    -.782310962677D-07  .489994394593D-02  .763684511185D-06  .515366539955D+04
     .647840000000D+05 -.186264514923D-08  .145793223794D+01 -.119209289551D-06
     .975121460694D+00  .374125000000D+03  .398546640290D+00 -.839892127736D-08
     .116433421348D-09  .100000000000D+01  .196100000000D+04  .000000000000D+00
     .240000000000D+01  .000000000000D+00  .139698386192D-08  .600000000000D+01
     .584160000000D+05  .400000000000D+01
 8 17  8  6 19 59 44.0 -.689560547471D-04 -.136424205266D-11  .000000000000D+00
     .700000000000D+01  .512500000000D+01  .478948521557D-08 -.769686276934D+00
     .372529029846D-07  .253635633271D-02  .612810254097D-06  .515366766357D+04
     .719840000000D+05 -.465661287308D-07  .145172850268D+01 -.465661287308D-07
     .966989559911D+00  .369875000000D+03 -.622633539483D+00 -.854214152877D-08
     .126790995640D-09  .100000000000D+01  .196100000000D+04  .000000000000D+00
     .240000000000D+01  .000000000000D+00  .558793544769D-08  .700000000000D+01
     .648060000000D+05  .400000000000D+01
27 17  8  6 19 59 44.0  .306211877614D-03  .602540239925D-11  .000000000000D+00
     .170000000000D+02 -.162500000000D+01  .458554814934D-08 -.126725479621D+01
    -.117346644402D-06  .489996536635D-02  .657513737679D-06  .515366631889D+04
     .719840000000D+05  .428408384323D-07  .145787162339D+01 -.651925802231D-07
     .975122456942D+00  .371406250000D+03  .398442825772D+00 -.841285042899D-08
     .140362989539D-09  .100000000000D+01  .196100000000D+04  .000000000000D+00
     .240000000000D+01  .000000000000D+00  .139698386192D-08  .170000000000D+02
     .648060000000D+05  .400000000000D+01
 1 17  8  6 20  0  0.0  .563813373446D-04 -.341060513165D-12  .000000000000D+00
     .144000000000D+03 -.135187500000D+03  .425910598029D-08  .282827255871D+01
    -.697374343872D-05  .694819865748D-02  .879168510437D-05  .515369004250D+04
     .720000000000D+05 -.465661287308D-07  .251549959666D+01 -.689178705215D-07
     .968406485309D+00  .214031250000D+03  .599392799253D+00 -.781496838194D-08
    -.215723271454D-09  .100000000000D+01  .196100000000D+04  .000000000000D+00
     .340000000000D+01  .000000000000D+00  .558793544769D-08  .144000000000D+03
     .648060000000D+05  .400000000000D+01
 2 17  8  6 20  0  0.0  .360122881830D-03 -.864019966684D-11  .000000000000D+00
     .790000000000D+02 -.131187500000D+03  .475019786481D-08 -.310481174195D+01
    -.671669840813D-05  .169824052136D-01  .712834298611D-05  .515356560135D+04
     .720000000000D+05  .217929482460D-06  .246062091083D+01 -.268220901489D-06
     .947322468149D+00  .231531250000D+03 -.196642466788D+01 -.794711674360D-08
    -.219652006531D-09  .100000000000D+01  .196100000000D+04  .000000000000D+00
     .240000000000D+01  .000000000000D+00 -.204890966415D-07  .790000000000D+02
     .648060000000D+05  .400000000000D+01
 3 17  8  6 20  0  0.0 -.809743069112D-04  .352429196937D-11  .000000000000D+00
     .102000000000D+03  .128125000000D+01  .445589989183D-08  .203809492345D+01
     .800937414169D-07  .857654842548D-03  .106450170279D-04  .515368926239D+04
     .720000000000D+05 -.335276126862D-07 -.272566942847D+01  .912696123123D-07
     .960349676110D+00  .173000000000D+03  .260599870071D+00 -.786068457192D-08
     .508592613495D-09  .100000000000D+01  .196100000000D+04  .000000000000D+00
     .340000000000D+01  .000000000000D+00  .232830643654D-08  .102000000000D+03
     .648060000000D+05  .400000000000D+01
 4 17  8  6 20  0  0.0  .636139884591D-05  .500222085975D-11  .000000000000D+00
     .350000000000D+02  .147500000000D+02  .498842207352D-08 -.104454476919D+01
     .875443220139D-06  .122874643421D-01  .270083546638D-06  .515366296768D+04
     .720000000000D+05  .232830643654D-06  .136894470570D+01 -.102445483208D-06
     .956448029705D+00  .367593750000D+03  .429716768091D+00 -.864035990567D-08
     .220366321999D-09  .100000000000D+01  .196100000000D+04  .000000000000D+00
     .240000000000D+01  .630000000000D+02 -.558793544769D-08  .350000000000D+02
     .648060000000D+05  .400000000000D+01
 5 17  8  6 20  0  0.0 -.342680141330D-04  .147792889038D-11  .000000000000D+00
     .180000000000D+02  .359375000000D+01  .476091259683D-08 -.526754175300D+00
     .139698386192D-06  .512308336329D-02  .992417335510D-05  .515380432701D+04
     .720000000000D+05  .409781932831D-07 -.274347051994D+01  .502914190292D-07
     .947305229122D+00  .180781250000D+03  .565840104552D+00 -.806890753096D-08
     .363229415677D-09  .100000000000D+01  .196100000000D+04  .000000000000D+00
     .240000000000D+01  .000000000000D+00 -.107102096081D-07  .180000000000D+02
     .648060000000D+05  .400000000000D+01
 6 17  8  6 20  0  0.0  .385510269552D-03  .397903932026D-11  .000000000000D+00
     .950000000000D+02 -.119875000000D+03  .438196824085D-08  .291952606913D+01
    -.603869557381D-05  .625336309895D-03  .794790685177D-05  .515372681618D+04
     .720000000000D+05  .521540641785D-07  .250713290776D+01  .260770320892D-07
     .968161017895D+00  .230781250000D+03 -.105728858943D+01 -.797747515100D-08
    -.205008539429D-09  .100000000000D+01  .196100000000D+04  .000000000000D+00
     .340000000000D+01  .000000000000D+00  .465661287308D-08  .950000000000D+02
     .648060000000D+05  .400000000000D+01
 7 17  8  6 20  0  0.0  .318889040500D-03 -.466116034659D-11  .000000000000D+00
     .340000000000D+02 -.871875000000D+01  .426910639685D-08  .220305685617D+01
    -.510364770889D-06  .109508095775D-01  .109057873487D-04  .515372983551D+04
     .720000000000D+05 -.219792127609D-06 -.611079052615D+00 -.117346644402D-06
     .961644393720D+00  .170750000000D+03 -.257484897330D+01 -.777746681985D-08
    -.611454040944D-09  .100000000000D+01  .196100000000D+04  .000000000000D+00
     .240000000000D+01  .000000000000D+00 -.111758708954D-07  .340000000000D+02
     .648060000000D+05  .400000000000D+01
 9 17  8  6 20  0  0.0  .420247670263D-03  .716227077646D-11  .000000000000D+00
     .490000000000D+02  .400000000000D+01  .516485799421D-08 -.116293424842D+01
     .143423676491D-06  .666533946060D-03  .447034835815D-05  .515356926155D+04
     .720000000000D+05 -.931322574615D-08 -.168982796563D+01  .111758708954D-07
     .952853060669D+00  .287187500000D+03  .191343364669D+01 -.834534761723D-08
    -.678599694973D-10  .100000000000D+01  .196100000000D+04  .000000000000D+00
     .240000000000D+01  .000000000000D+00  .931322574615D-09  .490000000000D+02
     .648060000000D+05  .400000000000D+01
